IRIDIUM 36              
1 24967U 97056C   24302.33428182  .00001912  00000+0  63687-3 0  9992
2 24967  86.3921 270.3527 0002516  84.2454 275.9030 14.37157977418916
IRIDIUM 39              
1 25042U 97069D   24302.29129324  .00002832  00000+0  74811-3 0  9995
2 25042  86.3880 310.5721 0018277   8.7333 351.4185 14.48513706415383
IRIDIUM 38              
1 25043U 97069E   24302.36797059  .00001671  00000+0  55025-3 0  9996
2 25043  86.3954 330.7154 0003790 113.7304 246.4291 14.37645098412644
IRIDIUM 42              
1 25077U 97077A   24302.51011751  .00001611  00000+0  54911-3 0  9994
2 25077  86.3970 336.5384 0002607 106.1454 254.0030 14.35917771407947
IRIDIUM 44              
1 25078U 97077B   24302.46229484  .00001879  00000+0  59358-3 0  9999
2 25078  86.3931 319.0994 0004041  81.0497 279.1159 14.39766645410355
IRIDIUM 45              
1 25104U 97082A   24302.60078589  .00035534  00000+0  16754-2 0  9996
2 25104  86.3679 159.2973 0145629 111.4837 250.2002 15.10317375416949
IRIDIUM 24              
1 25105U 97082B   24302.38390579  .00001746  00000+0  53038-3 0  9993
2 25105  86.3965 178.5281 0013115 117.8010 242.4521 14.41603716409818
IRIDIUM 51              
1 25262U 98018A   24302.58295026  .00053579  00000+0  19803-2 0  9992
2 25262  86.3955 168.7027 0127426  48.8408 312.3744 15.20115143411610
